[{"OBJECT_NAME":"AFR-1","OBJECT_ID":"2023-084AJ","EPOCH":"2026-03-09T23:02:07.499328","MEAN_MOTION":15.27543824,"ECCENTRICITY":0.00099838,"INCLINATION":97.6099,"RA_OF_ASC_NODE":203.4313,"ARG_OF_PERICENTER":334.9676,"MEAN_ANOMALY":25.1077,"EPHEMERIS_TYPE":0,"CLASSIFICATION_TYPE":"U","NORAD_CAT_ID":56964,"ELEMENT_SET_NO":999,"REV_AT_EPOCH":15207,"BSTAR":0.00024843733,"MEAN_MOTION_DOT":6.624e-5,"MEAN_MOTION_DDOT":0},{"OBJECT_NAME":"STARLINK-30501","OBJECT_ID":"2023-147E","EPOCH":"2026-03-09T22:00:01.999584","MEAN_MOTION":15.26782053,"ECCENTRICITY":0.00024337,"INCLINATION":43.0008,"RA_OF_ASC_NODE":323.7294,"ARG_OF_PERICENTER":278.1889,"MEAN_ANOMALY":131.7473,"EPHEMERIS_TYPE":0,"CLASSIFICATION_TYPE":"U","NORAD_CAT_ID":57917,"ELEMENT_SET_NO":999,"REV_AT_EPOCH":578,"BSTAR":0.00027530446,"MEAN_MOTION_DOT":7.141e-5,"MEAN_MOTION_DDOT":0}]
